H1 CPF 01  gfz 2022 12 10 13  8442 terrasarx 
H2 0702601  6201 31698    2022 12 10 12 59 42 2022 12 15 00 00 42   120 1 1  0 0 0
H9
10 0 59925  39582.000000  0   -1133635.570    784884.754  -6755850.779
10 0 59925  39702.000000  0   -1331182.431   1659702.690  -6558590.580
10 0 59925  39822.000000  0   -1490580.577   2508892.628  -6246899.387
10 0 59925  39942.000000  0   -1609635.819   3317028.444  -5826146.485
10 0 59925  40062.000000  0   -1687109.418   4069336.685  -5303594.707
10 0 59925  40182.000000  0   -1722727.518   4751966.996  -4688286.610
10 0 59925  40302.000000  0   -1717170.972   5352252.127  -3990899.025
10 0 59925  40422.000000  0   -1672044.456   5858950.299  -3223566.497
10 0 59925  40542.000000  0   -1589825.117   6262464.747  -2399677.355
10 0 59925  40662.000000  0   -1473792.535   6555037.199  -1533644.627
10 0 59925  40782.000000  0   -1327940.514   6730908.306   -640653.611
10 0 59925  40902.000000  0   -1156873.014   6786441.133    263606.629
10 0 59925  41022.000000  0    -965685.954   6720205.383   1163225.745
10 0 59925  41142.000000  0    -759838.424   6533015.612   2042363.119
10 0 59925  41262.000000  0    -545016.319   6227921.041   2885536.377
10 0 59925  41382.000000  0    -326992.253   5810151.719   3677900.445
10 0 59925  41502.000000  0    -111485.964   5287023.331   4405513.589
10 0 59925  41622.000000  0      95972.100   4667800.970   5055589.285
10 0 59925  41742.000000  0     290172.101   3963520.606   5616719.277
10 0 59925  41862.000000  0     466345.472   3186785.478   6079069.169
10 0 59925  41982.000000  0     620273.053   2351532.045   6434547.302
10 0 59925  42102.000000  0     748378.751   1472774.029   6676939.822
10 0 59925  42222.000000  0     847807.278    566328.733   6802013.500
10 0 59925  42342.000000  0     916484.377   -351468.222   6807584.124
10 0 59925  42462.000000  0     953158.670  -1264056.062   6693553.356
10 0 59925  42582.000000  0     957424.386  -2154947.604   6461910.901
10 0 59925  42702.000000  0     929724.623  -3008027.167   6116702.610
10 0 59925  42822.000000  0     871334.656  -3807844.427   5663963.292
10 0 59925  42942.000000  0     784326.252  -4539895.822   5111615.118
10 0 59925  43062.000000  0     671514.537  -5190891.248   4469335.802
10 0 59925  43182.000000  0     536387.202  -5749003.653   3748395.714
10 0 59925  43302.000000  0     383016.778  -6204094.574   2961463.097
10 0 59925  43422.000000  0     215958.369  -6547908.703   2122381.393
10 0 59925  43542.000000  0      40134.789  -6774232.417   1245923.294
10 0 59925  43662.000000  0    -139287.319  -6879015.213    347526.276
10 0 59925  43782.000000  0    -317028.816  -6860447.861   -556988.844
10 0 59925  43902.000000  0    -487831.704  -6718992.962  -1451706.657
10 0 59925  44022.000000  0    -646591.778  -6457369.334  -2320905.356
10 0 59925  44142.000000  0    -788487.411  -6080492.858  -3149339.139
10 0 59925  44262.000000  0    -909101.530  -5595374.312  -3922510.206
10 0 59925  44382.000000  0   -1004533.375  -5010976.203  -4626923.707
10 0 59925  44502.000000  0   -1071497.285  -4338034.114  -5250319.373
10 0 59925  44622.000000  0   -1107406.736  -3588848.606  -5781877.727
10 0 59925  44742.000000  0   -1110441.685  -2777051.959  -6212398.492
10 0 59925  44862.000000  0   -1079598.308  -1917354.562  -6534448.985
10 0 59925  44982.000000  0   -1014720.556  -1025276.736  -6742480.731
10 0 59925  45102.000000  0    -916513.522   -116871.034  -6832915.296
10 0 59925  45222.000000  0    -786537.596    791561.737  -6804198.580
10 0 59925  45342.000000  0    -627183.750   1683757.365  -6656823.944
10 0 59925  45462.000000  0    -441631.242   2543771.788  -6393324.656
10 0 59925  45582.000000  0    -233787.579   3356259.793  -6018236.387
10 0 59925  45702.000000  0      -8210.560   4106746.618  -5538028.122
10 0 59925  45822.000000  0     229985.630   4781885.620  -4961000.568
10 0 59925  45942.000000  0     475238.446   5369699.866  -4297154.669
10 0 59925  46062.000000  0     721658.032   5859803.002  -3558028.563
10 0 59925  46182.000000  0     963158.879   6243593.197  -2756505.126
10 0 59925  46302.000000  0    1193599.320   6514416.500  -1906592.882
10 0 59925  46422.000000  0    1406925.880   6667695.130  -1023182.454
10 0 59925  46542.000000  0    1597319.068   6701016.169   -121782.823
10 0 59925  46662.000000  0    1759336.620   6614176.709    781757.193
10 0 59925  46782.000000  0    1888049.634   6409184.789   1671534.934
10 0 59925  46902.000000  0    1979169.286   6090216.703   2531881.787
10 0 59925  47022.000000  0    2029160.657   5663531.025   3347646.881
10 0 59925  47142.000000  0    2035340.566   5137341.903   4104471.493
10 0 59925  47262.000000  0    1995956.006   4521653.153   4789047.474
10 0 59925  47382.000000  0    1910242.612   3828056.750   5389353.977
10 0 59925  47502.000000  0    1778460.616   3069504.428   5894864.344
10 0 59925  47622.000000  0    1601909.903   2260059.778   6296726.352
10 0 59925  47742.000000  0    1382922.314   1414631.581   6587912.652
10 0 59925  47862.000000  0    1124831.913    548694.609   6763337.034
10 0 59925  47982.000000  0     831924.102   -321994.059   6819936.567
10 0 59925  48102.000000  0     509364.391  -1181680.443   6756723.193
10 0 59925  48222.000000  0     163107.096  -2014899.042   6574800.506
10 0 59925  48342.000000  0    -200214.656  -2806751.004   6277345.662
10 0 59925  48462.000000  0    -573415.062  -3543171.960   5869555.933
10 0 59925  48582.000000  0    -948894.852  -4211182.261   5358561.287
10 0 59925  48702.000000  0   -1318792.775  -4799118.627   4753307.798
10 0 59925  48822.000000  0   -1675148.656  -5296846.028   4064409.229
10 0 59925  48942.000000  0   -2010072.932  -5695942.796   3303964.585
10 0 59925  49062.000000  0   -2315919.025  -5989852.097   2485345.965
10 0 59925  49182.000000  0   -2585454.479  -6173996.928   1622961.798
10 0 59925  49302.000000  0   -2812026.224  -6245857.080    731998.786
10 0 59925  49422.000000  0   -2989716.095  -6205005.230   -171852.410
10 0 59925  49542.000000  0   -3113482.598  -6053100.873  -1072681.923
10 0 59925  49662.000000  0   -3179285.449  -5793841.902  -1954649.760
10 0 59925  49782.000000  0   -3184189.752  -5432875.036  -2802272.391
10 0 59925  49902.000000  0   -3126447.002  -4977667.702  -3600700.782
10 0 59925  50022.000000  0   -3005550.497  -4437344.886  -4335982.918
10 0 59925  50142.000000  0   -2822264.845  -3822497.129  -4995305.329
10 0 59925  50262.000000  0   -2578629.992  -3144964.862  -5567210.652
10 0 59925  50382.000000  0   -2277940.233  -2417603.961  -6041788.275
10 0 59925  50502.000000  0   -1924698.134  -1654037.811  -6410836.126
10 0 59925  50622.000000  0   -1524544.329   -868400.611  -6667991.118
10 0 59925  50742.000000  0   -1084166.377    -75077.507  -6808827.127
10 0 59925  50862.000000  0    -611188.165    711553.612  -6830922.084
10 0 59925  50982.000000  0    -114039.994   1477375.939  -6733895.188
10 0 59925  51102.000000  0     398187.199   2208780.249  -6519412.522
10 0 59925  51222.000000  0     915903.361   2892901.624  -6191163.839
10 0 59925  51342.000000  0    1429195.549   3517843.557  -5754806.035
10 0 59925  51462.000000  0    1928013.306   4072884.403  -5217874.579
10 0 59925  51582.000000  0    2402362.515   4548663.954  -4589665.176
10 0 59925  51702.000000  0    2842504.098   4937347.871  -3881083.905
10 0 59925  51822.000000  0    3239153.059   5232764.878  -3104466.876
10 0 59925  51942.000000  0    3583674.973   5430514.206  -2273372.529
10 0 59925  52062.000000  0    3868274.761   5528039.369  -1402347.595
10 0 59925  52182.000000  0    4086172.289   5524666.531   -506671.704
10 0 59925  52302.000000  0    4231760.432   5421605.509    397915.345
10 0 59925  52422.000000  0    4300741.543   5221912.022   1295497.419
10 0 59925  52542.000000  0    4290237.258   4930412.134   2170269.471
10 0 59925  52662.000000  0    4198871.819   4553594.051   3006824.112
10 0 59925  52782.000000  0    4026823.064   4099463.666   3790432.962
10 0 59925  52902.000000  0    3775840.621   3577371.203   4507310.273
10 0 59925  53022.000000  0    3449234.662   2997814.646   5144857.955
10 0 59925  53142.000000  0    3051829.918   2372223.321   5691889.392
10 0 59925  53262.000000  0    2589889.562   1712726.417   6138820.033
10 0 59925  53382.000000  0    2071013.414   1031914.182   6477830.084
10 0 59925  53502.000000  0    1504009.135    342595.008   6702994.752
10 0 59925  53622.000000  0     898740.082   -342444.632   6810381.889
10 0 59925  53742.000000  0     265952.651  -1010676.917   6798117.814
10 0 59925  53862.000000  0    -382914.932  -1650062.028   6666417.664
10 0 59925  53982.000000  0   -1035939.370  -2249264.873   6417581.238
10 0 59925  54102.000000  0   -1680930.309  -2797855.966   6055953.717
10 0 59925  54222.000000  0   -2305655.237  -3286493.272   5587854.867
10 0 59925  54342.000000  0   -2898071.873  -3707084.847   5021476.875
10 0 59925  54462.000000  0   -3446564.542  -4052927.949   4366747.376
10 0 59925  54582.000000  0   -3940176.068  -4318820.265   3635158.861
10 0 59925  54702.000000  0   -4368830.068  -4501142.057   2839569.200
10 0 59925  54822.000000  0   -4723540.443  -4597907.842   1993976.474
10 0 59925  54942.000000  0   -4996603.530  -4608785.470   1113269.431
10 0 59925  55062.000000  0   -5181766.550  -4535080.750    212959.376
10 0 59925  55182.000000  0   -5274368.556  -4379688.747   -691100.798
10 0 59925  55302.000000  0   -5271449.980  -4147012.717  -1583005.135
10 0 59925  55422.000000  0   -5171826.951  -3842851.705  -2447084.192
10 0 59925  55542.000000  0   -4976128.375  -3474260.426  -3268186.975
10 0 59925  55662.000000  0   -4686796.802  -3049386.761  -4031949.614
10 0 59925  55782.000000  0   -4308053.982  -2577290.869  -4725046.493
10 0 59925  55902.000000  0   -3845831.474  -2067750.213  -5335419.051
10 0 59925  56022.000000  0   -3307669.279  -1531055.783  -5852478.313
99
